satname,norad_id,inclination_deg,eccentricity,mean_motion_rev_per_day,perigee_km,apogee_km,l1,l2
STARLINK-1166,45060,53.0551,0.0001126,15.06406185,546.4128097557696,547.9723939821106,1 45060U 20006S   25262.91511246  .00005787  00000+0  40703-3 0  9992,2 45060  53.0551 333.2596 0001126  90.0653 270.0465 15.06406185310723
STARLINK-1169,45061,53.0556,0.0001488,15.06394458,546.1980490292972,548.2590378150189,1 45061U 20006T   25262.59075512  .00003681  00000+0  26589-3 0  9995,2 45061  53.0556 334.7133 0001488  80.3691 279.7466 15.06394458310677
STARLINK-1171,45062,53.0561,0.0001284,15.06398875,546.325790705836,548.1042211009517,1 45062U 20006U   25262.90773883  .00001418  00000+0  11406-3 0  9995,2 45062  53.0561 333.2872 0001284  93.8509 266.2627 15.06398875310722
STARLINK-1133,45064,53.0545,0.0001362,15.06406397,546.2487223207154,548.135181927275,1 45064U 20006W   25263.11967904  .00004634  00000+0  32973-3 0  9995,2 45064  53.0545 312.3357 0001362  93.4371 266.6774 15.06406397311033
STARLINK-1150,45067,53.0403,0.0001855,15.95956051,284.41564619678684,286.8879118338009,1 45067U 20006Z   25263.25003472  .00281279  42465-4  67845-3 0  9998,2 45067  53.0403 258.0499 0001855  29.8809  36.1068 15.95956051  6108
STARLINK-1167,45071,53.0543,0.0001429,15.06404526,546.2080561081802,548.1873167615631,1 45071U 20006AD  25263.14548437  .00005318  00000+0  37556-3 0  9994,2 45071  53.0543 312.2250 0001429  85.7874 274.3278 15.06404526311033
STARLINK-1168,45072,53.0544,0.0001146,15.06397413,546.4258408786491,548.013132585409,1 45072U 20006AE  25263.14916660  .00001717  00000+0  13412-3 0  9996,2 45072  53.0544 312.2068 0001146  83.7256 276.3864 15.06397413311039
STARLINK-1172,45074,53.0547,0.0001323,15.06396028,546.3075063481665,548.1399567977405,1 45074U 20006AG  25262.56310879  .00001430  00000+0  11490-3 0  9999,2 45074  53.0547 314.8382 0001323  87.7295 272.3846 15.06396028310941
STARLINK-1153,45080,53.0541,0.0001379,15.06401802,546.2510302687815,548.1610398778539,1 45080U 20006AN  25263.13812035  .00003572  00000+0  25859-3 0  9994,2 45080  53.0541 312.2585 0001379  83.5050 276.6096 15.06401802311035
STARLINK-1151,45081,53.0559,0.0001334,15.06395872,546.3003665072556,548.1480528780012,1 45081U 20006AP  25262.85798778  .00001600  00000+0  12627-3 0  9999,2 45081  53.0559 313.5883 0001334  87.3168 272.7974 15.06395872310998
STARLINK-1190,45083,53.0489,0.000845,15.72866567,345.0230991176513,356.39484881365297,1 45083U 20006AR  25262.79026322  .00108295  00000+0  77555-3 0  9992,2 45083  53.0489 286.7794 0008450  27.0383 333.1074 15.72866567311362
STARLINK-1173,45084,53.044,0.0009102,15.81893732,318.98426804057544,331.18681435457256,1 45084U 20006AS  25263.25003472  .00189138  00000+0  89531-3 0  9998,2 45084  53.0440 248.4912 0009102  13.3440 265.4434 15.81893732  6041
STARLINK-1179,45085,53.0382,0.000386,15.94244657,287.84583770636436,292.99396363368123,1 45085U 20006AT  25263.25003472  .00333039  54336-4  87887-3 0  9998,2 45085  53.0382 239.1929 0003860  33.9347 165.3978 15.94244657  6019
STARLINK-1185,45087,53.0552,0.0001339,15.06399743,546.2850413289971,548.1396498837503,1 45087U 20006AV  25263.09940198  .00001086  00000+0  91790-4 0  9994,2 45087  53.0552 292.4275 0001339  89.9560 270.1582 15.06399743311311
STARLINK-1183,45088,53.0562,0.0001183,15.06397544,546.3998156098914,548.0383548596583,1 45088U 20006AW  25263.12152298  .00001813  00000+0  14060-3 0  9997,2 45088  53.0562 292.3294 0001183  69.6208 290.4908 15.06397544311318
STARLINK-1176,45090,53.0484,0.0004747,15.79482093,328.7217774935725,335.0922933007787,1 45090U 20006AY  25263.33336806  .00243125  00000+0  12790-2 0  9993,2 45090  53.0484 245.7779 0004747 356.8062 201.8389 15.79482093  6079
STARLINK-1142,45093,53.0383,0.0006157,15.49848972,412.983618701227,421.35135664734935,1 45093U 20006BB  25262.23652119  .00066653  00000+0  11730-2 0  9994,2 45093  53.0383 244.2839 0006157  51.3300 308.8257 15.49848972311913
STARLINK-1146,45094,53.0446,0.0003681,15.95670662,283.99307715820214,288.89954339122596,1 45094U 20006BC  25263.33336806  .00391053  72395-4  95456-3 0  9993,2 45094  53.0446 239.8467 0003681  18.5329 265.9471 15.95670662  6086
STARLINK-1147,45095,53.0406,0.0008577,15.90917375,293.98692059644145,305.4421070832832,1 45095U 20006BD  25263.33336806  .00264063  36900-4  82919-3 0  9996,2 45095  53.0406 242.6693 0008577  18.5651 244.8668 15.90917375  6076
STARLINK-1152,45096,53.0462,0.0005543,15.20658814,500.03749584034085,507.66686904799735,1 45096U 20006BE  25262.77294265  .00016280  00000+0  74503-3 0  9999,2 45096  53.0462 280.8039 0005543  39.6127 320.5272 15.20658814311445
STARLINK-1184,45098,53.0536,0.0001281,15.06396973,546.3336969341462,548.1079736115435,1 45098U 20006BG  25262.80453690  .00000599  00000+0  59130-4 0  9990,2 45098  53.0536 293.7524 0001281  84.3066 275.8069 15.06396973311260
STARLINK-1193,45100,53.0526,0.0001231,15.06399452,546.360726865626,548.0657480940936,1 45100U 20006BJ  25262.40276413  .00000635  00000+0  61493-4 0  9992,2 45100  53.0526 295.5551 0001231  84.0265 276.0864 15.06399452311201
STARLINK-1143,45179,53.0557,0.0004127,15.33459616,462.67531902967767,468.3240567518633,1 45179U 20012B   25262.84133978  .00084459  00000+0  25571-2 0  9992,2 45179  53.0557  66.3086 0004127 168.3838 191.7259 15.33459616309473
STARLINK-1201,45182,53.0362,0.0005845,16.12022988,237.43044702500902,245.16856830246707,1 45182U 20012E   25263.54968877  .00856621  43849-3  77651-3 0  9995,2 45182  53.0362  11.9755 0005845 353.9577   6.1386 16.12022988310131
STARLINK-1202,45183,53.0543,0.0001259,15.06407185,546.3176384246217,548.0614356466467,1 45183U 20012F   25262.79716235  .00001150  00000+0  96064-4 0  9998,2 45183  53.0543  93.7860 0001259  90.3524 269.7609 15.06407185309082
STARLINK-1216,45185,53.0546,0.0001347,15.0640237,546.2714507668088,548.1371377114783,1 45185U 20012H   25262.92249099  .00002328  00000+0  17509-3 0  9998,2 45185  53.0546  93.2213 0001347  95.9422 264.1721 15.06402370309041
STARLINK-1224,45186,53.0327,0.0006655,16.18829961,218.33767896627342,227.1234336837415,1 45186U 20012J   25263.64774139  .01330285  11793-4  73136-3 0  9998,2 45186  53.0327  32.2893 0006655 336.4103  23.6628 16.18829961309959
STARLINK-1225,45187,53.0536,0.0001502,15.06396361,546.1825219430302,548.2629000002053,1 45187U 20012K   25262.80821672  .00000064  00000+0  23198-4 0  9997,2 45187  53.0536  93.7365 0001502  94.4454 265.6706 15.06396361309071
STARLINK-1230,45189,53.0544,0.0001393,15.06397428,546.25473860686,548.1841429112555,1 45189U 20012M   25262.81190636  .00000936  00000+0  81742-4 0  9996,2 45189  53.0544  93.7196 0001393  95.8384 264.2764 15.06397428306306
STARLINK-1234,45190,53.0559,0.0001396,15.06401301,546.2407924614754,548.1743486655769,1 45190U 20012N   25262.63128956  .00001117  00000+0  93850-4 0  9999,2 45190  53.0559  54.5289 0001396  83.9389 276.1759 15.06401301309516
STARLINK-1240,45194,53.0379,0.0002653,16.0246921,265.81998317054877,269.3462022517415,1 45194U 20012S   25263.07948836  .00531297  13917-3  88143-3 0  9999,2 45194  53.0379  36.9403 0002653   6.7824 353.3242 16.02469210309791
STARLINK-1244,45196,53.0342,0.0004962,16.09208521,245.72702340144133,252.30380945950674,1 45196U 20012U   25263.75130326  .00790718  34960-3  86377-3 0  9996,2 45196  53.0342  32.6737 0004962 339.0352  21.0477 16.09208521310063
STARLINK-1269,45197,53.055,0.0001359,15.06445141,546.1320746619067,548.014346797183,1 45197U 20012V   25262.82292261  .00006354  00000+0  44452-3 0  9999,2 45197  53.0550  93.6710 0001359  95.4200 264.6945 15.06445141309054
STARLINK-1154,45198,53.0553,0.0001206,15.06392557,546.3991699680219,548.0695695424065,1 45198U 20012W   25262.74739583 -.00000009  00000+0  18305-4 0  9995,2 45198  53.0553  74.0083 0001206  92.1487 267.9640 15.06392557309292
STARLINK-1199,45201,53.0547,0.0001271,15.06403978,546.3191557159289,548.0795762201587,1 45201U 20012Z   25262.75844647  .00001219  00000+0  10070-3 0  9992,2 45201  53.0547  73.9594 0001271  86.1804 273.9330 15.06403978309353
STARLINK-1206,45204,53.0386,0.0005815,16.09007857,245.71238961745894,253.42040867066407,1 45204U 20012AC  25260.96032920  .01301962  10831-2  14557-2 0  9997,2 45204  53.0386  28.6592 0005815 286.2193  73.8200 16.09007857309841
STARLINK-1208,45205,53.0389,0.0001092,15.97290615,281.21217422748487,282.66673492516566,1 45205U 20012AD  25263.25003472  .00431822  88052-4  96454-3 0  9990,2 45205  53.0389  18.1914 0001092  10.9469 187.2366 15.97290615  6117
STARLINK-1209,45206,53.0554,0.0001264,15.06405134,546.3204609435697,548.0711850812277,1 45206U 20012AE  25262.70131969  .00000642  00000+0  62008-4 0  9996,2 45206  53.0554  54.2171 0001264  92.1996 267.9138 15.06405134308679
STARLINK-1210,45207,53.03,0.0010626,15.46282134,420.38158814497274,434.845168849356,1 45207U 20012AF  25262.75742914  .00032646  00000+0  65682-3 0  9999,2 45207  53.0300  27.2214 0010626 248.9009 111.0861 15.46282134310015
STARLINK-1231,45212,53.0527,0.0003147,15.08771498,537.7756572417238,542.1299029493157,1 45212U 20012AL  25262.95597949  .00025299  00000+0  16047-2 0  9999,2 45212  53.0527  72.6298 0003147 159.2459 200.8659 15.08771498309341
STARLINK-1271,45217,53.055,0.0001226,15.06398699,546.3664970967129,548.0645935408256,1 45217U 20012AR  25262.74372396  .00002500  00000+0  18666-3 0  9998,2 45217  53.0550  74.0238 0001226  95.8642 264.2487 15.06398699309357
STARLINK-1191,45222,53.055,0.0001316,15.06400844,546.2975956712326,548.1203467308533,1 45222U 20012AW  25262.81927807  .00001564  00000+0  12384-3 0  9995,2 45222  53.0550  53.6842 0001316  88.6987 271.4153 15.06400844309647
STARLINK-1212,45223,53.0548,0.0001323,15.06403246,546.2853871356238,548.117831731679,1 45223U 20012AX  25262.70508618  .00001103  00000+0  92891-4 0  9990,2 45223  53.0548  54.8516 0001323  87.4810 272.6331 15.06403246309624
